{
  "type": "FeatureCollection",
  "features": [
    {
      "type": "Feature",
      "properties": {
        "norad_id": 40545,
        "name": "GSAT0204 (GALILEO 8)",
        "group": "gnss",
        "lat": 9.211141063930967,
        "lon": 160.46821685157514,
        "alt_km": 23222.866586986012,
        "timestamp": "2025-12-17T21:39:45.933145+00:00",
        "meta_object_name": "GSAT0204 (GALILEO 8)",
        "meta_object_id": "2015-017B",
        "meta_epoch": "2025-12-14T16:39:40.338432",
        "meta_mean_motion": 1.70475755,
        "meta_eccentricity": 0.0006191,
        "meta_inclination": 56.8531,
        "meta_ra_of_asc_node": 346.6443,
        "meta_arg_of_pericenter": 264.523,
        "meta_mean_anomaly": 95.425,
        "meta_ephemeris_type": 0,
        "meta_classification_type": "U",
        "meta_norad_cat_id": 40545,
        "meta_element_set_no": 999,
        "meta_rev_at_epoch": 2910,
        "meta_bstar": 0,
        "meta_mean_motion_dot": -8.5e-07,
        "meta_mean_motion_ddot": 0,
        "tle_line1": "1 40545U 15017B   25348.69421688 -.00000085  00000+0  00000+0 0  9990",
        "tle_line2": "2 40545  56.8531 346.6443 0006191 264.5230  95.4250  1.70475755 29105"
      },
      "geometry": {
        "type": "Point",
        "coordinates": [
          160.46821685157514,
          9.211141063930967
        ]
      }
    },
    {
      "type": "Feature",
      "properties": {
        "norad_id": 40549,
        "name": "BEIDOU-3S IGSO-1S (C31)",
        "group": "gnss",
        "lat": -21.357243513199993,
        "lon": 137.0678366154427,
        "alt_km": 35635.75803318644,
        "timestamp": "2025-12-17T21:39:45.933155+00:00",
        "meta_object_name": "BEIDOU-3S IGSO-1S (C31)",
        "meta_object_id": "2015-019A",
        "meta_epoch": "2025-12-16T22:00:09.125856",
        "meta_mean_motion": 1.00292577,
        "meta_eccentricity": 0.00363578,
        "meta_inclination": 49.5427,
        "meta_ra_of_asc_node": 297.6612,
        "meta_arg_of_pericenter": 193.8033,
        "meta_mean_anomaly": 18.6613,
        "meta_ephemeris_type": 0,
        "meta_classification_type": "U",
        "meta_norad_cat_id": 40549,
        "meta_element_set_no": 999,
        "meta_rev_at_epoch": 3924,
        "meta_bstar": 0,
        "meta_mean_motion_dot": -1.91e-06,
        "meta_mean_motion_ddot": 0,
        "tle_line1": "1 40549U 15019A   25350.91677229 -.00000191  00000+0  00000+0 0  9996",
        "tle_line2": "2 40549  49.5427 297.6612 0036357 193.8033  18.6613  1.00292577 39245"
      },
      "geometry": {
        "type": "Point",
        "coordinates": [
          137.0678366154427,
          -21.357243513199993
        ]
      }
    },
    {
      "type": "Feature",
      "properties": {
        "norad_id": 40730,
        "name": "GPS BIIF-10 (PRN 08)",
        "group": "gnss",
        "lat": 43.43317445866827,
        "lon": 51.382164563596326,
        "alt_km": 20199.829424394513,
        "timestamp": "2025-12-17T21:39:45.933166+00:00",
        "meta_object_name": "GPS BIIF-10 (PRN 08)",
        "meta_object_id": "2015-033A",
        "meta_epoch": "2025-12-17T05:42:17.714592",
        "meta_mean_motion": 2.0056549,
        "meta_eccentricity": 0.01112523,
        "meta_inclination": 54.1267,
        "meta_ra_of_asc_node": 274.5878,
        "meta_arg_of_pericenter": 26.9189,
        "meta_mean_anomaly": 333.675,
        "meta_ephemeris_type": 0,
        "meta_classification_type": "U",
        "meta_norad_cat_id": 40730,
        "meta_element_set_no": 999,
        "meta_rev_at_epoch": 7634,
        "meta_bstar": 0,
        "meta_mean_motion_dot": -4.6e-07,
        "meta_mean_motion_ddot": 0,
        "tle_line1": "1 40730U 15033A   25351.23770503 -.00000046  00000+0  00000+0 0  9998",
        "tle_line2": "2 40730  54.1267 274.5878 0111252  26.9189 333.6750  2.00565490 76347"
      },
      "geometry": {
        "type": "Point",
        "coordinates": [
          51.382164563596326,
          43.43317445866827
        ]
      }
    },
    {
      "type": "Feature",
      "properties": {
        "norad_id": 40748,
        "name": "BEIDOU-3S M2S (C58)",
        "group": "gnss",
        "lat": 36.128540761633666,
        "lon": -21.04600653468545,
        "alt_km": 21549.430227734152,
        "timestamp": "2025-12-17T21:39:45.933176+00:00",
        "meta_object_name": "BEIDOU-3S M2S (C58)",
        "meta_object_id": "2015-037A",
        "meta_epoch": "2025-12-11T22:15:26.437248",
        "meta_mean_motion": 1.8622897,
        "meta_eccentricity": 0.00123447,
        "meta_inclination": 55.0397,
        "meta_ra_of_asc_node": 308.4912,
        "meta_arg_of_pericenter": 267.8245,
        "meta_mean_anomaly": 92.025,
        "meta_ephemeris_type": 0,
        "meta_classification_type": "U",
        "meta_norad_cat_id": 40748,
        "meta_element_set_no": 999,
        "meta_rev_at_epoch": 7063,
        "meta_bstar": 0,
        "meta_mean_motion_dot": -8.9e-07,
        "meta_mean_motion_ddot": 0,
        "tle_line1": "1 40748U 15037A   25345.92738932 -.00000089  00000+0  00000+0 0  9997",
        "tle_line2": "2 40748  55.0397 308.4912 0012344 267.8245  92.0250  1.86228970 70636"
      },
      "geometry": {
        "type": "Point",
        "coordinates": [
          -21.04600653468545,
          36.128540761633666
        ]
      }
    },
    {
      "type": "Feature",
      "properties": {
        "norad_id": 40749,
        "name": "BEIDOU-3S M1S (C57)",
        "group": "gnss",
        "lat": -51.276583353466854,
        "lon": -171.03757096389617,
        "alt_km": 21534.038553284812,
        "timestamp": "2025-12-17T21:39:45.933187+00:00",
        "meta_object_name": "BEIDOU-3S M1S (C57)",
        "meta_object_id": "2015-037B",
        "meta_epoch": "2025-12-11T14:53:54.000096",
        "meta_mean_motion": 1.86253918,
        "meta_eccentricity": 0.00034406,
        "meta_inclination": 55.0364,
        "meta_ra_of_asc_node": 308.4915,
        "meta_arg_of_pericenter": 358.1692,
        "meta_mean_anomaly": 1.8205,
        "meta_ephemeris_type": 0,
        "meta_classification_type": "U",
        "meta_norad_cat_id": 40749,
        "meta_element_set_no": 999,
        "meta_rev_at_epoch": 7063,
        "meta_bstar": 0,
        "meta_mean_motion_dot": -8.8e-07,
        "meta_mean_motion_ddot": 0,
        "tle_line1": "1 40749U 15037B   25345.62076389 -.00000088  00000+0  00000+0 0  9995",
        "tle_line2": "2 40749  55.0364 308.4915 0003440 358.1692   1.8205  1.86253918 70639"
      },
      "geometry": {
        "type": "Point",
        "coordinates": [
          -171.03757096389617,
          -51.276583353466854
        ]
      }
    },
    {
      "type": "Feature",
      "properties": {
        "norad_id": 40889,
        "name": "GSAT0205 (GALILEO 9)",
        "group": "gnss",
        "lat": -38.12791703122812,
        "lon": -166.70207529054227,
        "alt_km": 23226.4891807316,
        "timestamp": "2025-12-17T21:39:45.933197+00:00",
        "meta_object_name": "GSAT0205 (GALILEO 9)",
        "meta_object_id": "2015-045A",
        "meta_epoch": "2025-12-13T06:56:57.536448",
        "meta_mean_motion": 1.70473165,
        "meta_eccentricity": 0.00060191,
        "meta_inclination": 55.0031,
        "meta_ra_of_asc_node": 226.743,
        "meta_arg_of_pericenter": 39.8542,
        "meta_mean_anomaly": 320.2702,
        "meta_ephemeris_type": 0,
        "meta_classification_type": "U",
        "meta_norad_cat_id": 40889,
        "meta_element_set_no": 999,
        "meta_rev_at_epoch": 6384,
        "meta_bstar": 0,
        "meta_mean_motion_dot": 2.2e-07,
        "meta_mean_motion_ddot": 0,
        "tle_line1": "1 40889U 15045A   25347.28955482  .00000022  00000+0  00000+0 0  9990",
        "tle_line2": "2 40889  55.0031 226.7430 0006019  39.8542 320.2702  1.70473165 63847"
      },
      "geometry": {
        "type": "Point",
        "coordinates": [
          -166.70207529054227,
          -38.12791703122812
        ]
      }
    },
    {
      "type": "Feature",
      "properties": {
        "norad_id": 40890,
        "name": "GSAT0206 (GALILEO 10)",
        "group": "gnss",
        "lat": 3.438703946221215,
        "lon": 44.210885211739956,
        "alt_km": 23230.689778347074,
        "timestamp": "2025-12-17T21:39:45.933218+00:00",
        "meta_object_name": "GSAT0206 (GALILEO 10)",
        "meta_object_id": "2015-045B",
        "meta_epoch": "2025-12-14T16:24:04.185792",
        "meta_mean_motion": 1.70473242,
        "meta_eccentricity": 0.00039786,
        "meta_inclination": 55.0018,
        "meta_ra_of_asc_node": 226.6995,
        "meta_arg_of_pericenter": 38.8814,
        "meta_mean_anomaly": 321.2332,
        "meta_ephemeris_type": 0,
        "meta_classification_type": "U",
        "meta_norad_cat_id": 40890,
        "meta_element_set_no": 999,
        "meta_rev_at_epoch": 6389,
        "meta_bstar": 0,
        "meta_mean_motion_dot": 3.4e-07,
        "meta_mean_motion_ddot": 0,
        "tle_line1": "1 40890U 15045B   25348.68338178  .00000034  00000+0  00000+0 0  9997",
        "tle_line2": "2 40890  55.0018 226.6995 0003978  38.8814 321.2332  1.70473242 63892"
      },
      "geometry": {
        "type": "Point",
        "coordinates": [
          44.210885211739956,
          3.438703946221215
        ]
      }
    }
  ]
}